$$SOE
2461323.500000000, A.D. 2026-Oct-10 00:00:00.0000, 5.621187609758590E+09, 2.248842559980964E+09, 4.513033563456573E+08,
2461330.500000000, A.D. 2026-Oct-17 00:00:00.0000, 5.620357115948270E+09, 2.251517208542390E+09, 4.520668330888047E+08,
2461337.500000000, A.D. 2026-Oct-24 00:00:00.0000, 5.619525426414321E+09, 2.254191307268134E+09, 4.528302116853614E+08,
2461344.500000000, A.D. 2026-Oct-31 00:00:00.0000, 5.618692542255478E+09, 2.256864852881253E+09, 4.535934919203686E+08,
2461351.500000000, A.D. 2026-Nov-07 00:00:00.0000, 5.617858465369914E+09, 2.259537841475114E+09, 4.543566734575531E+08,
2461358.500000000, A.D. 2026-Nov-14 00:00:00.0000, 5.617023199537045E+09, 2.262210269033865E+09, 4.551197557755694E+08,
2461365.500000000, A.D. 2026-Nov-21 00:00:00.0000, 5.616186750315739E+09, 2.264882133433578E+09, 4.558827383337464E+08,
2461372.500000000, A.D. 2026-Nov-28 00:00:00.0000, 5.615349122760811E+09, 2.267553434915988E+09, 4.566456208133307E+08,
2461379.500000000, A.D. 2026-Dec-05 00:00:00.0000, 5.614510320577408E+09, 2.270224174378503E+09, 4.574084030488793E+08,
2461386.500000000, A.D. 2026-Dec-12 00:00:00.0000, 5.613670346878115E+09, 2.272894352591470E+09, 4.581710848892212E+08,
2461393.500000000, A.D. 2026-Dec-19 00:00:00.0000, 5.612829204655603E+09, 2.275563970349124E+09, 4.589336661618551E+08,
2461400.500000000, A.D. 2026-Dec-26 00:00:00.0000, 5.611986896828341E+09, 2.278233028686142E+09, 4.596961466831334E+08,
2461407.500000000, A.D. 2027-Jan-02 00:00:00.0000, 5.611143426134954E+09, 2.280901528968766E+09, 4.604585262735000E+08,
2461414.500000000, A.D. 2027-Jan-09 00:00:00.0000, 5.610298794993584E+09, 2.283569472880495E+09, 4.612208047688324E+08,
2461421.500000000, A.D. 2027-Jan-16 00:00:00.0000, 5.609453005360504E+09, 2.286236862310940E+09, 4.619829820254362E+08,
2461428.500000000, A.D. 2027-Jan-23 00:00:00.0000, 5.608606058632588E+09, 2.288903699108033E+09, 4.627450579112624E+08,
2461435.500000000, A.D. 2027-Jan-30 00:00:00.0000, 5.607757955779772E+09, 2.291569984645576E+09, 4.635070322621905E+08,
2461442.500000000, A.D. 2027-Feb-06 00:00:00.0000, 5.606908698130569E+09, 2.294235719546053E+09, 4.642689047921116E+08,
2461449.500000000, A.D. 2027-Feb-13 00:00:00.0000, 5.606058288348781E+09, 2.296900904778210E+09, 4.650306750985903E+08,
2461456.500000000, A.D. 2027-Feb-20 00:00:00.0000, 5.605206729236215E+09, 2.299565543338336E+09, 4.657923429160761E+08,
2461463.500000000, A.D. 2027-Feb-27 00:00:00.0000, 5.604354021756353E+09, 2.302229639301517E+09, 4.665539082258172E+08,
2461470.500000000, A.D. 2027-Mar-06 00:00:00.0000, 5.603500165296495E+09, 2.304893196165409E+09, 4.673153711025800E+08,
2461477.500000000, A.D. 2027-Mar-13 00:00:00.0000, 5.602645158567819E+09, 2.307556216536012E+09, 4.680767316122292E+08,
2461484.500000000, A.D. 2027-Mar-20 00:00:00.0000, 5.601789000013794E+09, 2.310218702320773E+09, 4.688379897953770E+08,
2461491.500000000, A.D. 2027-Mar-27 00:00:00.0000, 5.600931687928923E+09, 2.312880654880095E+09, 4.695991456735642E+08,
2461498.500000000, A.D. 2027-Apr-03 00:00:00.0000, 5.600073220490698E+09, 2.315542075089506E+09, 4.703601992553551E+08,
2461505.500000000, A.D. 2027-Apr-10 00:00:00.0000, 5.599213595766035E+09, 2.318202963335557E+09, 4.711211505385394E+08,
2461512.500000000, A.D. 2027-Apr-17 00:00:00.0000, 5.598352811714218E+09, 2.320863319431130E+09, 4.718819995052042E+08,
2461519.500000000, A.D. 2027-Apr-24 00:00:00.0000, 5.597490866265624E+09, 2.323523142388009E+09, 4.726427460972985E+08,
2461526.500000000, A.D. 2027-May-01 00:00:00.0000, 5.596627757775806E+09, 2.326182430074505E+09, 4.734033901474828E+08,
2461533.500000000, A.D. 2027-May-08 00:00:00.0000, 5.595763486162382E+09, 2.328841179506551E+09, 4.741639312982417E+08,
2461540.500000000, A.D. 2027-May-15 00:00:00.0000, 5.594898053227809E+09, 2.331499388725685E+09, 4.749243691244785E+08,
2461547.500000000, A.D. 2027-May-22 00:00:00.0000, 5.594031460604197E+09, 2.334157057672319E+09, 4.756847033912712E+08,
2461554.500000000, A.D. 2027-May-29 00:00:00.0000, 5.593163708676121E+09, 2.336814186586058E+09, 4.764449340190676E+08,
2461561.500000000, A.D. 2027-Jun-05 00:00:00.0000, 5.592294797366205E+09, 2.339470775064785E+09, 4.772050609311893E+08,
2461568.500000000, A.D. 2027-Jun-12 00:00:00.0000, 5.591424726776019E+09, 2.342126822214336E+09, 4.779650840031772E+08,
2461575.500000000, A.D. 2027-Jun-19 00:00:00.0000, 5.590553497351207E+09, 2.344782326953745E+09, 4.787250030680616E+08,
2461582.500000000, A.D. 2027-Jun-26 00:00:00.0000, 5.589681109850306E+09, 2.347437288214731E+09, 4.794848179307598E+08,
2461589.500000000, A.D. 2027-Jul-03 00:00:00.0000, 5.588807565249366E+09, 2.350091705043746E+09, 4.802445283803716E+08,
2461596.500000000, A.D. 2027-Jul-10 00:00:00.0000, 5.587932864619219E+09, 2.352745576615293E+09, 4.810041341979502E+08,
2461603.500000000, A.D. 2027-Jul-17 00:00:00.0000, 5.587057009011731E+09, 2.355398902117659E+09, 4.817636351534797E+08,
2461610.500000000, A.D. 2027-Jul-24 00:00:00.0000, 5.586179999511487E+09, 2.358051680448257E+09, 4.825230309728380E+08,
2461617.500000000, A.D. 2027-Jul-31 00:00:00.0000, 5.585301837864320E+09, 2.360703909954088E+09, 4.832823212564722E+08,
2461624.500000000, A.D. 2027-Aug-07 00:00:00.0000, 5.584422527481980E+09, 2.363355589369049E+09, 4.840415054625098E+08,
2461631.500000000, A.D. 2027-Aug-14 00:00:00.0000, 5.583542072521797E+09, 2.366006719694791E+09, 4.848005831447580E+08,
2461638.500000000, A.D. 2027-Aug-21 00:00:00.0000, 5.582660475659590E+09, 2.368657303660923E+09, 4.855595541140007E+08,
2461645.500000000, A.D. 2027-Aug-28 00:00:00.0000, 5.581777737986851E+09, 2.371307343967793E+09, 4.863184183062004E+08,
2461652.500000000, A.D. 2027-Sep-04 00:00:00.0000, 5.580893859851082E+09, 2.373956842814155E+09, 4.870771756703254E+08,
2461659.500000000, A.D. 2027-Sep-11 00:00:00.0000, 5.580008841243966E+09, 2.376605802048397E+09, 4.878358261495150E+08,
2461666.500000000, A.D. 2027-Sep-18 00:00:00.0000, 5.579122681870543E+09, 2.379254223293292E+09, 4.885943696899980E+08,
2461673.500000000, A.D. 2027-Sep-25 00:00:00.0000, 5.578235381128259E+09, 2.381902107966838E+09, 4.893528062501676E+08,
2461680.500000000, A.D. 2027-Oct-02 00:00:00.0000, 5.577346938070971E+09, 2.384549457227105E+09, 4.901111358049085E+08,
2461687.500000000, A.D. 2027-Oct-09 00:00:00.0000, 5.576457351380404E+09, 2.387196271836973E+09, 4.908693583425020E+08,
2461694.500000000, A.D. 2027-Oct-16 00:00:00.0000, 5.575566619408313E+09, 2.389842551894305E+09, 4.916274738436005E+08,
2461701.500000000, A.D. 2027-Oct-23 00:00:00.0000, 5.574674740549405E+09, 2.392488296422266E+09, 4.923854822177805E+08,
2461708.500000000, A.D. 2027-Oct-30 00:00:00.0000, 5.573781714319841E+09, 2.395133503430452E+09, 4.931433832130501E+08,
2461715.500000000, A.D. 2027-Nov-06 00:00:00.0000, 5.572887541977967E+09, 2.397778171575262E+09, 4.939011764971043E+08,
2461722.500000000, A.D. 2027-Nov-13 00:00:00.0000, 5.571992224701980E+09, 2.400422301343523E+09, 4.946588619226816E+08,
2461729.500000000, A.D. 2027-Nov-20 00:00:00.0000, 5.571095762226381E+09, 2.403065893573676E+09, 4.954164395322322E+08,
2461736.500000000, A.D. 2027-Nov-27 00:00:00.0000, 5.570198153554869E+09, 2.405708948279087E+09, 4.961739093958168E+08,
2461743.500000000, A.D. 2027-Dec-04 00:00:00.0000, 5.569299397726083E+09, 2.408351464687507E+09, 4.969312715425667E+08,
2461750.500000000, A.D. 2027-Dec-11 00:00:00.0000, 5.568399494081686E+09, 2.410993441532790E+09, 4.976885259574660E+08,
2461757.500000000, A.D. 2027-Dec-18 00:00:00.0000, 5.567498442311708E+09, 2.413634877259855E+09, 4.984456725906049E+08,
2461764.500000000, A.D. 2027-Dec-25 00:00:00.0000, 5.566596242429183E+09, 2.416275770140853E+09, 4.992027113648745E+08,
2461771.500000000, A.D. 2028-Jan-01 00:00:00.0000, 5.565692894715484E+09, 2.418916118317197E+09, 4.999596421796031E+08,
$$EOE